{
  "type": "FeatureCollection",
  "features": [
    {
      "type": "Feature",
      "properties": {
        "norad_id": 33724,
        "name": "FENGYUN 1C DEB",
        "group": "fengyun-1c-debris",
        "lat": 20.750551356264072,
        "lon": -169.0088458497425,
        "alt_km": 806.4971505821059,
        "timestamp": "2025-12-23T16:57:12.640088+00:00",
        "meta_object_name": "FENGYUN 1C DEB",
        "meta_object_id": "1999-025DHM",
        "meta_epoch": "2025-12-22T06:40:37.155648",
        "meta_mean_motion": 14.19663244,
        "meta_eccentricity": 0.00279005,
        "meta_inclination": 98.6032,
        "meta_ra_of_asc_node": 6.3154,
        "meta_arg_of_pericenter": 154.2406,
        "meta_mean_anomaly": 269.5567,
        "meta_ephemeris_type": 0,
        "meta_classification_type": "U",
        "meta_norad_cat_id": 33724,
        "meta_element_set_no": 999,
        "meta_rev_at_epoch": 94097,
        "meta_bstar": 0.00040045162,
        "meta_mean_motion_dot": 8.07e-06,
        "meta_mean_motion_ddot": 0,
        "tle_line1": "1 33724U 99025DHM 25356.27820782  .00000807  00000+0  40045-3 0  9991",
        "tle_line2": "2 33724  98.6032   6.3154 0027900 154.2406 269.5567 14.19663244940977"
      },
      "geometry": {
        "type": "Point",
        "coordinates": [
          -169.0088458497425,
          20.750551356264072
        ]
      }
    },
    {
      "type": "Feature",
      "properties": {
        "norad_id": 33726,
        "name": "FENGYUN 1C DEB",
        "group": "fengyun-1c-debris",
        "lat": -62.20437290046762,
        "lon": 138.32733365481232,
        "alt_km": 786.8913417617778,
        "timestamp": "2025-12-23T16:57:12.640098+00:00",
        "meta_object_name": "FENGYUN 1C DEB",
        "meta_object_id": "1999-025DHP",
        "meta_epoch": "2025-12-22T07:25:21.024768",
        "meta_mean_motion": 14.14317357,
        "meta_eccentricity": 0.01922665,
        "meta_inclination": 98.6392,
        "meta_ra_of_asc_node": 120.2126,
        "meta_arg_of_pericenter": 3.7011,
        "meta_mean_anomaly": 25.3001,
        "meta_ephemeris_type": 0,
        "meta_classification_type": "U",
        "meta_norad_cat_id": 33726,
        "meta_element_set_no": 999,
        "meta_rev_at_epoch": 92067,
        "meta_bstar": 0.00027067796,
        "meta_mean_motion_dot": 5.74e-06,
        "meta_mean_motion_ddot": 0,
        "tle_line1": "1 33726U 99025DHP 25356.30927112  .00000574  00000+0  27068-3 0  9993",
        "tle_line2": "2 33726  98.6392 120.2126 0192266   3.7011  25.3001 14.14317357920673"
      },
      "geometry": {
        "type": "Point",
        "coordinates": [
          138.32733365481232,
          -62.20437290046762
        ]
      }
    },
    {
      "type": "Feature",
      "properties": {
        "norad_id": 33728,
        "name": "FENGYUN 1C DEB",
        "group": "fengyun-1c-debris",
        "lat": 80.93387125393396,
        "lon": -42.598231899501826,
        "alt_km": 577.793239660753,
        "timestamp": "2025-12-23T16:57:12.640108+00:00",
        "meta_object_name": "FENGYUN 1C DEB",
        "meta_object_id": "1999-025DHR",
        "meta_epoch": "2025-12-19T03:08:31.669440",
        "meta_mean_motion": 14.92712258,
        "meta_eccentricity": 0.01477777,
        "meta_inclination": 98.9792,
        "meta_ra_of_asc_node": 49.9098,
        "meta_arg_of_pericenter": 194.4676,
        "meta_mean_anomaly": 165.2288,
        "meta_ephemeris_type": 0,
        "meta_classification_type": "U",
        "meta_norad_cat_id": 33728,
        "meta_element_set_no": 999,
        "meta_rev_at_epoch": 98395,
        "meta_bstar": 0.00039692023,
        "meta_mean_motion_dot": 4.984e-05,
        "meta_mean_motion_ddot": 0,
        "tle_line1": "1 33728U 99025DHR 25353.13092210  .00004984  00000+0  39692-3 0  9990",
        "tle_line2": "2 33728  98.9792  49.9098 0147777 194.4676 165.2288 14.92712258983955"
      },
      "geometry": {
        "type": "Point",
        "coordinates": [
          -42.598231899501826,
          80.93387125393396
        ]
      }
    },
    {
      "type": "Feature",
      "properties": {
        "norad_id": 33730,
        "name": "FENGYUN 1C DEB",
        "group": "fengyun-1c-debris",
        "lat": -63.967941187619296,
        "lon": 75.58350326460904,
        "alt_km": 668.2369460811778,
        "timestamp": "2025-12-23T16:57:12.640118+00:00",
        "meta_object_name": "FENGYUN 1C DEB",
        "meta_object_id": "1999-025DHT",
        "meta_epoch": "2025-12-17T10:18:00.572256",
        "meta_mean_motion": 14.63540792,
        "meta_eccentricity": 0.00393712,
        "meta_inclination": 99.0546,
        "meta_ra_of_asc_node": 49.6389,
        "meta_arg_of_pericenter": 356.5197,
        "meta_mean_anomaly": 3.5723,
        "meta_ephemeris_type": 0,
        "meta_classification_type": "U",
        "meta_norad_cat_id": 33730,
        "meta_element_set_no": 999,
        "meta_rev_at_epoch": 95748,
        "meta_bstar": 0.0011805307,
        "meta_mean_motion_dot": 6.139e-05,
        "meta_mean_motion_ddot": 0,
        "tle_line1": "1 33730U 99025DHT 25351.42917329  .00006139  00000+0  11805-2 0  9999",
        "tle_line2": "2 33730  99.0546  49.6389 0039371 356.5197   3.5723 14.63540792957483"
      },
      "geometry": {
        "type": "Point",
        "coordinates": [
          75.58350326460904,
          -63.967941187619296
        ]
      }
    },
    {
      "type": "Feature",
      "properties": {
        "norad_id": 33731,
        "name": "FENGYUN 1C DEB",
        "group": "fengyun-1c-debris",
        "lat": -6.5274085161796656,
        "lon": 21.28013276010692,
        "alt_km": 834.4271199331733,
        "timestamp": "2025-12-23T16:57:12.640132+00:00",
        "meta_object_name": "FENGYUN 1C DEB",
        "meta_object_id": "1999-025DHU",
        "meta_epoch": "2025-12-22T18:36:47.179584",
        "meta_mean_motion": 13.95374154,
        "meta_eccentricity": 0.01288614,
        "meta_inclination": 99.444,
        "meta_ra_of_asc_node": 19.2357,
        "meta_arg_of_pericenter": 29.0665,
        "meta_mean_anomaly": 331.7591,
        "meta_ephemeris_type": 0,
        "meta_classification_type": "U",
        "meta_norad_cat_id": 33731,
        "meta_element_set_no": 999,
        "meta_rev_at_epoch": 90589,
        "meta_bstar": 0.0013898511,
        "meta_mean_motion_dot": 1.972e-05,
        "meta_mean_motion_ddot": 0,
        "tle_line1": "1 33731U 99025DHU 25356.77554606  .00001972  00000+0  13899-2 0  9993",
        "tle_line2": "2 33731  99.4440  19.2357 0128861  29.0665 331.7591 13.95374154905892"
      },
      "geometry": {
        "type": "Point",
        "coordinates": [
          21.28013276010692,
          -6.5274085161796656
        ]
      }
    },
    {
      "type": "Feature",
      "properties": {
        "norad_id": 33733,
        "name": "FENGYUN 1C DEB",
        "group": "fengyun-1c-debris",
        "lat": -56.9991211641253,
        "lon": 97.84067748309772,
        "alt_km": 849.784467645075,
        "timestamp": "2025-12-23T16:57:12.640143+00:00",
        "meta_object_name": "FENGYUN 1C DEB",
        "meta_object_id": "1999-025DHW",
        "meta_epoch": "2025-12-14T05:17:42.025920",
        "meta_mean_motion": 14.31052291,
        "meta_eccentricity": 0.0080503,
        "meta_inclination": 99.1007,
        "meta_ra_of_asc_node": 73.621,
        "meta_arg_of_pericenter": 166.27,
        "meta_mean_anomaly": 251.3144,
        "meta_ephemeris_type": 0,
        "meta_classification_type": "U",
        "meta_norad_cat_id": 33733,
        "meta_element_set_no": 999,
        "meta_rev_at_epoch": 90469,
        "meta_bstar": 0.0032633155,
        "meta_mean_motion_dot": 8.868e-05,
        "meta_mean_motion_ddot": 0,
        "tle_line1": "1 33733U 99025DHW 25348.22062530  .00008868  00000+0  32633-2 0  9994",
        "tle_line2": "2 33733  99.1007  73.6210 0080503 166.2700 251.3144 14.31052291904690"
      },
      "geometry": {
        "type": "Point",
        "coordinates": [
          97.84067748309772,
          -56.9991211641253
        ]
      }
    },
    {
      "type": "Feature",
      "properties": {
        "norad_id": 33737,
        "name": "FENGYUN 1C DEB",
        "group": "fengyun-1c-debris",
        "lat": 71.28987035837895,
        "lon": 36.370274508528546,
        "alt_km": 952.5655417293083,
        "timestamp": "2025-12-23T16:57:12.640153+00:00",
        "meta_object_name": "FENGYUN 1C DEB",
        "meta_object_id": "1999-025DJA",
        "meta_epoch": "2025-12-23T01:37:13.912896",
        "meta_mean_motion": 14.03039814,
        "meta_eccentricity": 0.01283618,
        "meta_inclination": 98.3387,
        "meta_ra_of_asc_node": 190.1231,
        "meta_arg_of_pericenter": 253.8161,
        "meta_mean_anomaly": 228.6943,
        "meta_ephemeris_type": 0,
        "meta_classification_type": "U",
        "meta_norad_cat_id": 33737,
        "meta_element_set_no": 999,
        "meta_rev_at_epoch": 88885,
        "meta_bstar": 0.0012772587,
        "meta_mean_motion_dot": 2.095e-05,
        "meta_mean_motion_ddot": 0,
        "tle_line1": "1 33737U 99025DJA 25357.06752214  .00002095  00000+0  12773-2 0  9994",
        "tle_line2": "2 33737  98.3387 190.1231 0128361 253.8161 228.6943 14.03039814888851"
      },
      "geometry": {
        "type": "Point",
        "coordinates": [
          36.370274508528546,
          71.28987035837895
        ]
      }
    }
  ]
}